{
    "links": {
        "self": "http://www.neowsapp.com/rest/v1/neo/3670631?api_key=iIulBulltgU6a56xZRHN4H3l9WmuAYTsLGpBGhQ2"
    },
    "id": "3670631",
    "neo_reference_id": "3670631",
    "name": "(2014 JO24)",
    "designation": "2014 JO24",
    "nasa_jpl_url": "http://ssd.jpl.nasa.gov/sbdb.cgi?sstr=3670631",
    "absolute_magnitude_h": 24.5,
    "estimated_diameter": {
        "kilometers": {
            "estimated_diameter_min": 0.0334622374,
            "estimated_diameter_max": 0.0748238376
        },
        "meters": {
            "estimated_diameter_min": 33.4622374455,
            "estimated_diameter_max": 74.8238376074
        },
        "miles": {
            "estimated_diameter_min": 0.0207924639,
            "estimated_diameter_max": 0.0464933628
        },
        "feet": {
            "estimated_diameter_min": 109.7842471007,
            "estimated_diameter_max": 245.4850393757
        }
    },
    "is_potentially_hazardous_asteroid": false,
    "close_approach_data": [
        {
            "close_approach_date": "2014-04-30",
            "close_approach_date_full": "2014-Apr-30 03:57",
            "epoch_date_close_approach": 1398830220000,
            "relative_velocity": {
                "kilometers_per_second": "8.7558423985",
                "kilometers_per_hour": "31521.0326347232",
                "miles_per_hour": "19585.9438612812"
            },
            "miss_distance": {
                "astronomical": "0.0802820102",
                "lunar": "31.2297019678",
                "kilometers": "12010017.725238274",
                "miles": "7462678.9654412212"
            },
            "orbiting_body": "Earth"
        }
    ],
    "orbital_data": {
        "orbit_id": "10",
        "orbit_determination_date": "2017-04-06 08:40:38",
        "first_observation_date": "2014-05-05",
        "last_observation_date": "2014-05-20",
        "data_arc_in_days": 15,
        "observations_used": 32,
        "orbit_uncertainty": "8",
        "minimum_orbit_intersection": ".0708113",
        "jupiter_tisserand_invariant": "3.382",
        "epoch_osculation": "2456786.5",
        "eccentricity": ".5428901602833017",
        "semi_major_axis": "2.284157952316629",
        "inclination": "7.380654566866609",
        "ascending_node_longitude": "52.71749344464678",
        "orbital_period": "1260.92026846671",
        "perihelion_distance": "1.044111075471076",
        "perihelion_argument": "143.2508909184253",
        "aphelion_distance": "3.524204829162182",
        "perihelion_time": "2456758.601774879211",
        "mean_anomaly": "7.96510397576276",
        "mean_motion": ".2855057603584746",
        "equinox": "J2000",
        "orbit_class": {
            "orbit_class_type": "AMO",
            "orbit_class_description": "Near-Earth asteroid orbits similar to that of 1221 Amor",
            "orbit_class_range": "1.017 AU < q (perihelion) < 1.3 AU"
        }
    },
    "is_sentry_object": false
}